NORAD_CAT_ID,OBJECT_NAME,OBJECT_TYPE,EPOCH,MEAN_MOTION,ECCENTRICITY,INCLINATION,RA_OF_ASC_NODE,ARG_OF_PERICENTER,MEAN_ANOMALY,BSTAR,MEAN_MOTION_DOT,MEAN_MOTION_DDOT,TLE_LINE0,TLE_LINE1,TLE_LINE2,SEMIMAJOR_AXIS,PERIOD,APOGEE,PERIGEE,DECAYED
56779.0,STARLINK-6231,PAYLOAD,2023-08-25 06:10:22,15.69919867,0.0002914,70.0002,171.5533,264.3051,95.7812,-3.8582e-06,-6.76e-06,0.0,0 STARLINK-6231,1 56779U 23078N   23237.25720432 -.00000676  00000-0 -38582-5 0  9998,2 56779  70.0002 171.5533 0002914 264.3051  95.7812 15.69919867 13802,6737.263,91.724,361.091,357.165,0.0
56779.0,STARLINK-6231,PAYLOAD,2023-08-26 06:38:24,15.69930326,0.0003253,70.0004,168.6888,267.0114,93.0709,2.9336e-05,3.317e-05,0.0,0 STARLINK-6231,1 56779U 23078N   23238.27666846  .00003317  00000-0  29336-4 0  9998,2 56779  70.0004 168.6888 0003253 267.0114  93.0709 15.69930326 13967,6737.233,91.724,361.29,356.907,0.0
56779.0,STARLINK-6231,PAYLOAD,2023-08-26 20:24:10,15.69930259,0.000325,70.0014,167.0786,265.0634,95.019,1.06e-05,1.062e-05,0.0,0 STARLINK-6231,1 56779U 23078N   23238.85011757  .00001062  00000-0  10600-4 0  9996,2 56779  70.0014 167.0786 0003250 265.0634  95.0190 15.69930259 13792,6737.234,91.724,361.288,356.909,0.0
56779.0,STARLINK-6231,PAYLOAD,2023-08-27 07:06:26,15.69928505,0.0003405,70.0018,165.8266,263.3459,96.735,2.7359e-05,3.079e-05,0.0,0 STARLINK-6231,1 56779U 23078N   23239.29613600  .00003079  00000-0  27359-4 0  9999,2 56779  70.0018 165.8266 0003405 263.3459  96.7350 15.69928505 14128,6737.239,91.724,361.398,356.81,0.0
56779.0,STARLINK-6231,PAYLOAD,2023-08-27 20:52:12,15.69926817,0.0003048,70.0014,164.2133,265.9737,94.1111,2.3963e-05,2.67e-05,0.0,0 STARLINK-6231,1 56779U 23078N   23239.86958779  .00002670  00000-0  23963-4 0  9994,2 56779  70.0014 164.2133 0003048 265.9737  94.1111 15.69926817 13951,6737.243,91.724,361.162,357.055,0.0
56779.0,STARLINK-6231,PAYLOAD,2023-08-28 04:30:58,15.69918818,0.0003405,69.9997,163.3156,270.1751,89.9054,3.4545e-06,2.03e-06,0.0,0 STARLINK-6231,1 56779U 23078N   23240.18817488  .00000203  00000-0  34545-5 0  9991,2 56779  69.9997 163.3156 0003405 270.1751  89.9054 15.69918818 14269,6737.266,91.724,361.425,356.837,0.0
56779.0,STARLINK-6231,PAYLOAD,2023-08-28 21:20:13,15.69933258,0.0003522,69.9995,161.3441,269.964,90.1152,9.8398e-06,9.71e-06,0.0,0 STARLINK-6231,1 56779U 23078N   23240.88905073  .00000971  00000-0  98398-5 0  9994,2 56779  69.9995 161.3441 0003522 269.9640  90.1152 15.69933258 14117,6737.225,91.724,361.463,356.717,0.0
56779.0,STARLINK-6231,PAYLOAD,2023-08-29 04:58:59,15.69926271,0.0003642,70.0,160.4485,268.6044,91.4734,-4.3774e-07,-2.66e-06,0.0,0 STARLINK-6231,1 56779U 23078N   23241.20763618 -.00000266  00000-0 -43774-6 0  9996,2 56779  70.0000 160.4485 0003642 268.6044  91.4734 15.69926271 14423,6737.245,91.724,361.564,356.656,0.0
56779.0,STARLINK-6231,PAYLOAD,2023-08-29 21:48:18,15.69881402,0.0003446,69.999,158.477,275.6058,84.4745,0.00014828,0.00017623,0.0,0 STARLINK-6231,1 56779U 23078N   23241.90854468  .00017623  00000-0  14828-3 0  9995,2 56779  69.9990 158.4770 0003446 275.6058  84.4745 15.69881402 14539,6737.373,91.727,361.56,356.917,0.0
56779.0,STARLINK-6231,PAYLOAD,2023-08-30 03:55:16,15.69925542,0.000345,69.9968,157.7597,273.7521,86.328,2.2281e-05,2.467e-05,0.0,0 STARLINK-6231,1 56779U 23078N   23242.16338958  .00002467  00000-0  22281-4 0  9998,2 56779  69.9968 157.7597 0003450 273.7521  86.3280 15.69925542 14575,6737.247,91.724,361.436,356.788,0.0
56779.0,STARLINK-6231,PAYLOAD,2023-08-30 11:34:47,15.6935433,0.000269,69.9976,156.8685,226.9923,133.1047,-0.00061071,-0.00071321,0.0,0 STARLINK-6231,1 56779U 23078N   23242.48249967 -.00071321  00000-0 -61071-3 0  9990,2 56779  69.9976 156.8685 0002690 226.9923 133.1047 15.69354330 14622,6738.882,91.757,362.559,358.934,0.0
56779.0,STARLINK-6231,PAYLOAD,2023-08-30 22:17:56,15.6884976,0.0003184,69.9981,155.6173,116.5182,243.634,-0.0011129,-0.00126318,0.0,0 STARLINK-6231,1 56779U 23078N   23242.92913049 -.00126318  00000-0 -11129-2 0  9993,2 56779  69.9981 155.6173 0003184 116.5182 243.6340 15.68849760 14692,6740.327,91.787,364.338,360.045,0.0
56779.0,STARLINK-6231,PAYLOAD,2023-08-31 12:00:00,15.69916104,0.0003346,70.0,154.0028,266.5101,85.4888,2.5422e-05,2.844e-05,0.0,0 STARLINK-6231,1 56779U 23078N   23243.50001157  .00002844  00000-0  25422-4 0  9994,2 56779  70.0000 154.0028 0003346 266.5101  85.4888 15.69916104 14783,6737.274,91.725,361.393,356.885,0.0
56779.0,STARLINK-6231,PAYLOAD,2023-08-31 16:00:00,15.69908845,0.0003399,69.9999,153.5344,263.0195,310.6451,0.00027199,0.00032598,0.0,0 STARLINK-6231,1 56779U 23078N   23243.66667824  .00032598  00000-0  27199-3 0  9991,2 56779  69.9999 153.5344 0003399 263.0195 310.6451 15.69908845  6036,6737.295,91.725,361.45,356.87,0.0
56779.0,STARLINK-6231,PAYLOAD,2023-09-01 10:58:21,15.69926296,0.0002475,69.996,151.3138,268.1211,91.9701,1.209e-05,1.242e-05,0.0,0 STARLINK-6231,1 56779U 23078N   23244.45719688  .00001242  00000-0  12090-4 0  9992,2 56779  69.9960 151.3138 0002475 268.1211  91.9701 15.69926296 14935,6737.245,91.724,360.777,357.442,0.0
56779.0,STARLINK-6231,PAYLOAD,2023-09-02 05:19:22,15.69934783,0.0003499,69.9965,149.1618,265.1432,94.9364,-1.8091e-05,-2.389e-05,0.0,0 STARLINK-6231,1 56779U 23078N   23245.22179279 -.00002389  00000-0 -18091-4 0  9996,2 56779  69.9965 149.1618 0003499 265.1432  94.9364 15.69934783 14799,6737.221,91.724,361.443,356.728,0.0
56779.0,STARLINK-6231,PAYLOAD,2023-09-02 19:05:08,15.69937167,0.0003463,69.9965,147.5506,264.4839,95.5962,1.8829e-05,2.053e-05,0.0,0 STARLINK-6231,1 56779U 23078N   23245.79523437  .00002053  00000-0  18829-4 0  9992,2 56779  69.9965 147.5506 0003463 264.4839  95.5962 15.69937167 14881,6737.214,91.723,361.412,356.746,0.0
56779.0,STARLINK-6231,PAYLOAD,2023-09-03 01:12:08,15.69895355,0.0003373,69.9959,146.8341,261.3078,98.7736,8.5872e-05,0.00010113,0.0,0 STARLINK-6231,1 56779U 23078N   23246.05010324  .00010113  00000-0  85872-4 0  9996,2 56779  69.9959 146.8341 0003373 261.3078  98.7736 15.69895355 15184,6737.333,91.726,361.471,356.926,0.0
56779.0,STARLINK-6231,PAYLOAD,2023-09-03 10:22:41,15.69906135,0.0003365,69.9983,145.7582,267.9109,92.1701,-1.5492e-05,-2.074e-05,0.0,0 STARLINK-6231,1 56779U 23078N   23246.43242067 -.00002074  00000-0 -15492-4 0  9999,2 56779  69.9983 145.7582 0003365 267.9109  92.1701 15.69906135 15240,6737.303,91.725,361.435,356.9,0.0
56779.0,STARLINK-6231,PAYLOAD,2023-09-04 00:08:27,15.69918737,0.0003748,69.9968,144.1465,268.5082,91.5684,-1.1559e-05,-1.602e-05,0.0,0 STARLINK-6231,1 56779U 23078N   23247.00586807 -.00001602  00000-0 -11559-4 0  9992,2 56779  69.9968 144.1465 0003748 268.5082  91.5684 15.69918737 15332,6737.266,91.724,361.657,356.606,0.0
56779.0,STARLINK-6231,PAYLOAD,2023-09-04 03:11:56,15.69927888,0.0003217,69.9994,143.7868,272.1675,87.9152,7.3716e-06,6.74e-06,0.0,0 STARLINK-6231,1 56779U 23078N   23247.13329851  .00000674  00000-0  73716-5 0  9990,2 56779  69.9994 143.7868 0003217 272.1675  87.9152 15.69927888 15351,6737.24,91.724,361.273,356.938,0.0
56779.0,STARLINK-6231,PAYLOAD,2023-09-04 10:50:42,15.69934548,0.0003368,69.9988,142.8913,268.4923,91.5886,3.7084e-05,4.25e-05,0.0,0 STARLINK-6231,1 56779U 23078N   23247.45187828  .00004250  00000-0  37084-4 0  9992,2 56779  69.9988 142.8913 0003368 268.4923  91.5886 15.69934548 15149,6737.221,91.724,361.355,356.817,0.0
56779.0,STARLINK-6231,PAYLOAD,2023-09-04 16:57:42,15.69940561,0.0003387,69.9988,142.1748,268.1222,91.9586,5.4427e-05,6.341e-05,0.0,0 STARLINK-6231,1 56779U 23078N   23247.70674274  .00006341  00000-0  54427-4 0  9999,2 56779  69.9988 142.1748 0003387 268.1222  91.9586 15.69940561 15444,6737.204,91.723,361.351,356.787,0.0
56779.0,STARLINK-6231,PAYLOAD,2023-09-04 18:29:18,15.70350223,0.0007459,69.9987,141.995,267.7975,92.2367,0.001645,0.00206338,0.0,0 STARLINK-6231,1 56779U 23078N   23247.77035075  .00206338  00000-0  16450-2 0  9996,2 56779  69.9987 141.9950 0007459 267.7975  92.2367 15.70350223 15453,6736.032,91.699,362.922,352.873,0.0
56779.0,STARLINK-6231,PAYLOAD,2023-09-05 20:00:01,15.69950379,0.0003417,69.9991,139.0076,266.4355,338.9176,-0.00029598,-0.0003569,0.0,0 STARLINK-6231,1 56779U 23078N   23248.83334491 -.00035690  00000-0 -29598-3 0  9999,2 56779  69.9991 139.0076 0003417 266.4355 338.9176 15.69950379 15626,6737.176,91.723,361.343,356.739,0.0
56779.0,STARLINK-6231,PAYLOAD,2023-09-06 05:39:46,15.69928081,0.0003169,69.9992,137.8758,267.6571,92.4262,4.4936e-05,5.195e-05,0.0,0 STARLINK-6231,1 56779U 23078N   23249.23594912  .00005195  00000-0  44936-4 0  9999,2 56779  69.9992 137.8758 0003169 267.6571  92.4262 15.69928081 15686,6737.24,91.724,361.24,356.97,0.0
56779.0,STARLINK-6231,PAYLOAD,2023-09-07 01:32:32,15.69924534,0.0003353,69.9983,135.5473,268.4142,91.6669,1.6899e-05,1.82e-05,0.0,0 STARLINK-6231,1 56779U 23078N   23250.06426691  .00001820  00000-0  16899-4 0  9998,2 56779  69.9983 135.5473 0003353 268.4142  91.6669 15.69924534 15819,6737.25,91.724,361.374,356.856,0.0
56779.0,STARLINK-6231,PAYLOAD,2023-09-07 03:04:17,15.69925407,0.0004485,69.9998,135.3696,256.8758,103.1937,1.6125e-05,1.726e-05,0.0,0 STARLINK-6231,1 56779U 23078N   23250.12797790  .00001726  00000-0  16125-4 0  9993,2 56779  69.9998 135.3696 0004485 256.8758 103.1937 15.69925407 15560,6737.247,91.724,362.134,356.091,0.0
56779.0,STARLINK-6231,PAYLOAD,2023-09-08 02:00:34,15.699267,0.0003178,70.0006,132.6822,266.4599,93.6233,1.1666e-05,1.19e-05,0.0,0 STARLINK-6231,1 56779U 23078N   23251.08373497  .00001190  00000-0  11666-4 0  9993,2 56779  70.0006 132.6822 0003178 266.4599  93.6233 15.69926700 15976,6737.244,91.724,361.25,356.968,0.0
56779.0,STARLINK-6231,PAYLOAD,2023-09-08 03:32:19,15.69932818,0.0003115,69.9995,132.5016,264.8356,95.2484,2.2777e-05,2.528e-05,0.0,0 STARLINK-6231,1 56779U 23078N   23251.14744961  .00002528  00000-0  22777-4 0  9999,2 56779  69.9995 132.5016 0003115 264.8356  95.2484 15.69932818 15724,6737.226,91.724,361.19,356.993,0.0
